{
"type": "FeatureCollection",
"name": "actual_geocoded_polling_places",
"crs": { "type": "name", "properties": { "name": "urn:ogc:def:crs:OGC:1.3:CRS84" } },
"features": [
{ "type": "Feature", "properties": { "COUNTY": "Adair", "ELECTION_NAME": "NOVEMBER 3, 2020 GENERAL", "LOCATION_CODE": "BRASHEAR1", "LOCATION_NAME": "NEMO FAIR GROUNDS", "PRECINCT_CODE": "1009", "PRECINCT": "BRASHEAR/WILSON", "SPLIT_CODE": "03", "LOCATION_ADDRESS": "2700 E ILLINOIS ST KIRKSVILLE, 63501", "lat": 40.196907, "lon": -92.552397 }, "geometry": { "type": "Point", "coordinates": [ -92.552397, 40.196907 ] } },
{ "type": "Feature", "properties": { "COUNTY": "Adair", "ELECTION_NAME": "NOVEMBER 3, 2020 GENERAL", "LOCATION_CODE": "CORNERSTON", "LOCATION_NAME": "CORNERSTONE CHURCH", "PRECINCT_CODE": "101", "PRECINCT": "SOUTHWEST ONE/BENTON", "SPLIT_CODE": "01", "LOCATION_ADDRESS": "1702 N ELSON ST KIRKSVILLE, 63501", "lat": 40.2080196, "lon": -92.5841936 }, "geometry": { "type": "Point", "coordinates": [ -92.5841936, 40.2080196 ] } },
{ "type": "Feature", "properties": { "COUNTY": "Adair", "ELECTION_NAME": "NOVEMBER 3, 2020 GENERAL", "LOCATION_CODE": "REHOBOTH", "LOCATION_NAME": "REHOBOTH BAPTIST CHURCH", "PRECINCT_CODE": "102", "PRECINCT": "SOUTHEAST TWO/BENTON", "SPLIT_CODE": "01", "LOCATION_ADDRESS": "100 PFEIFFER AVE KIRKSVILLE, 63501", "lat": 40.1940987, "lon": -92.5582592 }, "geometry": { "type": "Point", "coordinates": [ -92.5582592, 40.1940987 ] } },
{ "type": "Feature", "properties": { "COUNTY": "Adair", "ELECTION_NAME": "NOVEMBER 3, 2020 GENERAL", "LOCATION_CODE": "MOOSE", "LOCATION_NAME": "LOYAL ORDER OF THE MOOSE LODGE", "PRECINCT_CODE": "103", "PRECINCT": "SOUTHEAST THREE/BENTON", "SPLIT_CODE": "01", "LOCATION_ADDRESS": "2405 E. ILLINOIS ST. KIRKSVILLE, 63501", "lat": 40.1970452, "lon": -92.5566421 }, "geometry": { "type": "Point", "coordinates": [ -92.5566421, 40.1970452 ] } },
{ "type": "Feature", "properties": { "COUNTY": "Adair", "ELECTION_NAME": "NOVEMBER 3, 2020 GENERAL", "LOCATION_CODE": "ANNEX", "LOCATION_NAME": "ADAIR COUNTY ANNEX", "PRECINCT_CODE": "104", "PRECINCT": "NORTHEAST FOUR/BENTON", "SPLIT_CODE": "01", "LOCATION_ADDRESS": "300 N FRANKLIN ST KIRKSVILLE, 63501", "lat": 40.1967056, "lon": -92.5828738 }, "geometry": { "type": "Point", "coordinates": [ -92.5828738, 40.1967056 ] } },
{ "type": "Feature", "properties": { "COUNTY": "Adair", "ELECTION_NAME": "NOVEMBER 3, 2020 GENERAL", "LOCATION_CODE": "MOOSE5", "LOCATION_NAME": "LOYAL ORDER OF THE MOOSE 5", "PRECINCT_CODE": "105", "PRECINCT": "NORTHEAST FIVE/BENTON", "SPLIT_CODE": "01", "LOCATION_ADDRESS": "2405 E ILLINOIS ST KIRKSVILLE, 63501", "lat": 40.1970452, "lon": -92.5566421 }, "geometry": { "type": "Point", "coordinates": [ -92.5566421, 40.1970452 ] } },
{ "type": "Feature", "properties": { "COUNTY": "Adair", "ELECTION_NAME": "NOVEMBER 3, 2020 GENERAL", "LOCATION_CODE": "STUDENT UN", "LOCATION_NAME": "STUDENT UNION, FIRST FLOOR", "PRECINCT_CODE": "107", "PRECINCT": "TSU/BENTON", "SPLIT_CODE": "01", "LOCATION_ADDRESS": "901 S FRANKLIN ST KIRKSVILLE, 63501", "lat": 40.189941, "lon": -92.583053 }, "geometry": { "type": "Point", "coordinates": [ -92.583053, 40.189941 ] } },
{ "type": "Feature", "properties": { "COUNTY": "Adair", "ELECTION_NAME": "NOVEMBER 3, 2020 GENERAL", "LOCATION_CODE": "CONSER", "LOCATION_NAME": "MO. DEPT. OF CONSERVATION", "PRECINCT_CODE": "108", "PRECINCT": "RURAL BENTON/BENTON", "SPLIT_CODE": "01", "LOCATION_ADDRESS": "3500 S. BALTIMORE KIRKSVILLE, 63501", "lat": 40.2151384, "lon": -92.5824861 }, "geometry": { "type": "Point", "coordinates": [ -92.5824861, 40.2151384 ] } },
{ "type": "Feature", "properties": { "COUNTY": "Adair", "ELECTION_NAME": "NOVEMBER 3, 2020 GENERAL", "LOCATION_CODE": "NOVINGER", "LOCATION_NAME": "NOVINGER COMMUNITY CENTER", "PRECINCT_CODE": "312", "PRECINCT": "NOVINGER/LIBERTY", "SPLIT_CODE": "01", "LOCATION_ADDRESS": "101 SNYDER AVE NOVINGER, 63559", "lat": 40.230423, "lon": -92.7091604 }, "geometry": { "type": "Point", "coordinates": [ -92.7091604, 40.230423 ] } },
{ "type": "Feature", "properties": { "COUNTY": "Andrew", "ELECTION_NAME": "2020 General Election", "LOCATION_CODE": "01", "LOCATION_NAME": "FILLMORE LINCOLN LODGE", "PRECINCT_CODE": "1", "PRECINCT": "CLAY", "SPLIT_CODE": "01", "LOCATION_ADDRESS": "153 E MAIN FILLMORE, 64449", "lat": 40.0250414, "lon": -94.9729027 }, "geometry": { "type": "Point", "coordinates": [ -94.9729027, 40.0250414 ] } },
{ "type": "Feature", "properties": { "COUNTY": "Andrew", "ELECTION_NAME": "2020 General Election", "LOCATION_CODE": "16", "LOCATION_NAME": "SHADY LAWN NURSING HOME", "PRECINCT_CODE": "16", "PRECINCT": "ROCHESTER", "SPLIT_CODE": "01", "LOCATION_ADDRESS": "13227 STATE ROUTE D SAVANNAH, 64485", "lat": 35.0061459, "lon": -80.928256 }, "geometry": { "type": "Point", "coordinates": [ -80.928256, 35.0061459 ] } },
{ "type": "Feature", "properties": { "COUNTY": "Andrew", "ELECTION_NAME": "2020 General Election", "LOCATION_CODE": "17", "LOCATION_NAME": "HELENA LIONS CLUB", "PRECINCT_CODE": "17", "PRECINCT": "HELENA", "SPLIT_CODE": "01", "LOCATION_ADDRESS": "14626 MAPLE STREET HELENA, 64459", "lat": 39.913449, "lon": -94.650741 }, "geometry": { "type": "Point", "coordinates": [ -94.650741, 39.913449 ] } },
{ "type": "Feature", "properties": { "COUNTY": "Andrew", "ELECTION_NAME": "2020 General Election", "LOCATION_CODE": "18", "LOCATION_NAME": "COSBY/HELENA FIRE DISTRICT", "PRECINCT_CODE": "18", "PRECINCT": "EAST MONROE", "SPLIT_CODE": "01", "LOCATION_ADDRESS": "561 MAIN STREET COSBY, 64436", "lat": 39.8639615, "lon": -94.6792617 }, "geometry": { "type": "Point", "coordinates": [ -94.6792617, 39.8639615 ] } },
{ "type": "Feature", "properties": { "COUNTY": "Andrew", "ELECTION_NAME": "2020 General Election", "LOCATION_CODE": "02", "LOCATION_NAME": "FILLMORE LINCOLN LODGE 2", "PRECINCT_CODE": "2", "PRECINCT": "FILLMORE", "SPLIT_CODE": "01", "LOCATION_ADDRESS": "153 E MAIN  FILLMORE, 64449", "lat": 40.0250414, "lon": -94.9729027 }, "geometry": { "type": "Point", "coordinates": [ -94.9729027, 40.0250414 ] } },
{ "type": "Feature", "properties": { "COUNTY": "Andrew", "ELECTION_NAME": "2020 General Election", "LOCATION_CODE": "03", "LOCATION_NAME": "AMAZONIA COMMUNITY BUILDING", "PRECINCT_CODE": "3", "PRECINCT": "LINCOLN", "SPLIT_CODE": "01", "LOCATION_ADDRESS": "410 HACKBERRY AMAZONIA, 64421", "lat": 39.8904214, "lon": -94.8916536 }, "geometry": { "type": "Point", "coordinates": [ -94.8916536, 39.8904214 ] } },
{ "type": "Feature", "properties": { "COUNTY": "Andrew", "ELECTION_NAME": "2020 General Election", "LOCATION_CODE": "04", "LOCATION_NAME": "COURTHOUSE BASEMENT4", "PRECINCT_CODE": "4", "PRECINCT": "NE SAVANNAH", "SPLIT_CODE": "01", "LOCATION_ADDRESS": "411 COURT STREET SAVANNAH, 64485", "lat": 39.9412806, "lon": -94.8294588 }, "geometry": { "type": "Point", "coordinates": [ -94.8294588, 39.9412806 ] } },
{ "type": "Feature", "properties": { "COUNTY": "Andrew", "ELECTION_NAME": "2020 General Election", "LOCATION_CODE": "05", "LOCATION_NAME": "UNITED METHODIST CHURCH 5", "PRECINCT_CODE": "5", "PRECINCT": "NW SAVANNAH", "SPLIT_CODE": "01", "LOCATION_ADDRESS": "103 N 4TH STREET SAVANNAH, 64485", "lat": 39.9418731, "lon": -94.8285191 }, "geometry": { "type": "Point", "coordinates": [ -94.8285191, 39.9418731 ] } },
{ "type": "Feature", "properties": { "COUNTY": "Andrew", "ELECTION_NAME": "2020 General Election", "LOCATION_CODE": "08", "LOCATION_NAME": "LIVING HOPE CHURCH", "PRECINCT_CODE": "8", "PRECINCT": "BEELER", "SPLIT_CODE": "01", "LOCATION_ADDRESS": "19410 HIGHWAY 59 ST. JOSEPH , 64505", "lat": 39.8031377, "lon": -94.8150439 }, "geometry": { "type": "Point", "coordinates": [ -94.8150439, 39.8031377 ] } }
]
}
